start=new Date('2023-01-13T00:00:00.000Z').valueOf();
sats=[{"BSTAR":"-0.00031171000000","DECAY_DATE":null,"RA_OF_ASC_NODE":"64.4008","TLE_LINE1":"1 46788U 20074BB  23012.40979857 -.00004926  00000-0 -31171-3 0  9992","EPHEMERIS_TYPE":"0","RCS_SIZE":"LARGE","ELEMENT_SET_NO":"999","SITE":"AFETR","MEAN_MOTION_DOT":"-0.00004926","REF_FRAME":"TEME","APOAPSIS":"548.741","MEAN_ANOMALY":"316.7908","PERIOD":"95.590","MEAN_MOTION_DDOT":"0.0000000000000","TLE_LINE2":"2 46788  53.0548  64.4008 0002349  43.3265 316.7908 15.06432500123425","OBJECT_NAME":"STARLINK-1929","COUNTRY_CODE":"US","ARG_OF_PERICENTER":"43.3265","CENTER_NAME":"EARTH","OBJECT_TYPE":"PAYLOAD","NORAD_CAT_ID":"46788","FILE":"3742227","MEAN_MOTION":"15.06432500","SEMIMAJOR_AXIS":"6925.249","PERIAPSIS":"545.487","GP_ID":"222886633","EPOCH":"2023-01-12T09:50:06.596448","MEAN_ELEMENT_THEORY":"SGP4","OBJECT_ID":"2020-074BB","ECCENTRICITY":"0.00023490","TIME_SYSTEM":"UTC","CLASSIFICATION_TYPE":"U","REV_AT_EPOCH":"12342","LAUNCH_DATE":"2020-10-24","INCLINATION":"53.0548"},{"LAUNCH_DATE":"2020-10-24","INCLINATION":"53.0564","REV_AT_EPOCH":"12299","CLASSIFICATION_TYPE":"U","OBJECT_ID":"2020-074BC","EPOCH":"2023-01-12T08:47:47.512896","MEAN_ELEMENT_THEORY":"SGP4","ECCENTRICITY":"0.00021940","TIME_SYSTEM":"UTC","PERIAPSIS":"545.691","SEMIMAJOR_AXIS":"6925.345","MEAN_MOTION":"15.06401027","GP_ID":"222886885","ARG_OF_PERICENTER":"39.4438","COUNTRY_CODE":"US","OBJECT_NAME":"STARLINK-1930","NORAD_CAT_ID":"46789","FILE":"3742227","OBJECT_TYPE":"PAYLOAD","CENTER_NAME":"EARTH","MEAN_MOTION_DDOT":"0.0000000000000","APOAPSIS":"548.730","MEAN_ANOMALY":"320.6710","PERIOD":"95.592","TLE_LINE2":"2 46789  53.0564  94.7743 0002194  39.4438 320.6710 15.06401027122998","SITE":"AFETR","ELEMENT_SET_NO":"999","REF_FRAME":"TEME","MEAN_MOTION_DOT":"0.00000448","TLE_LINE1":"1 46789U 20074BC  23012.36652214  .00000448  00000-0  49021-4 0  9990","RCS_SIZE":"LARGE","EPHEMERIS_TYPE":"0","DECAY_DATE":null,"BSTAR":"0.00004902100000","RA_OF_ASC_NODE":"94.7743"},{"PERIOD":"95.593","APOAPSIS":"548.539","MEAN_ANOMALY":"299.4560","MEAN_MOTION_DDOT":"0.0000000000000","TLE_LINE2":"2 46790  53.0544  91.7800 0001856  60.6614 299.4560 15.06386934122765","ELEMENT_SET_NO":"999","SITE":"AFETR","MEAN_MOTION_DOT":"0.00000475","REF_FRAME":"TEME","TLE_LINE1":"1 46790U 20074BD  23012.99313840  .00000475  00000-0  50795-4 0  9990","RCS_SIZE":"LARGE","EPHEMERIS_TYPE":"0","BSTAR":"0.00005079500000","DECAY_DATE":null,"RA_OF_ASC_NODE":"91.7800","LAUNCH_DATE":"2020-10-24","INCLINATION":"53.0544","REV_AT_EPOCH":"12276","CLASSIFICATION_TYPE":"U","OBJECT_ID":"2020-074BD","MEAN_ELEMENT_THEORY":"SGP4","EPOCH":"2023-01-12T23:50:07.157760","ECCENTRICITY":"0.00018560","TIME_SYSTEM":"UTC","PERIAPSIS":"545.968","MEAN_MOTION":"15.06386934","SEMIMAJOR_AXIS":"6925.389","GP_ID":"222862628","OBJECT_NAME":"STARLINK-1931","ARG_OF_PERICENTER":"60.6614","COUNTRY_CODE":"US","CENTER_NAME":"EARTH","FILE":"3742025","NORAD_CAT_ID":"46790","OBJECT_TYPE":"PAYLOAD"},{"INCLINATION":"53.0531","LAUNCH_DATE":"2020-10-24","REV_AT_EPOCH":"12275","CLASSIFICATION_TYPE":"U","OBJECT_ID":"2020-074BE","MEAN_ELEMENT_THEORY":"SGP4","EPOCH":"2023-01-12T22:35:48.393312","ECCENTRICITY":"0.00019350","TIME_SYSTEM":"UTC","PERIAPSIS":"545.919","SEMIMAJOR_AXIS":"6925.394","MEAN_MOTION":"15.06385241","GP_ID":"222862632","OBJECT_NAME":"STARLINK-1933","ARG_OF_PERICENTER":"47.7913","COUNTRY_CODE":"US","CENTER_NAME":"EARTH","FILE":"3742018","NORAD_CAT_ID":"46791","OBJECT_TYPE":"PAYLOAD","APOAPSIS":"548.599","MEAN_ANOMALY":"312.3240","PERIOD":"95.593","MEAN_MOTION_DDOT":"0.0000000000000","TLE_LINE2":"2 46791  53.0531  92.0281 0001935  47.7913 312.3240 15.06385241122754","ELEMENT_SET_NO":"999","SITE":"AFETR","MEAN_MOTION_DOT":"-0.00001561","REF_FRAME":"TEME","TLE_LINE1":"1 46791U 20074BE  23012.94153233 -.00001561  00000-0 -85958-4 0  9992","RCS_SIZE":"LARGE","EPHEMERIS_TYPE":"0","BSTAR":"-0.00008595800000","DECAY_DATE":null,"RA_OF_ASC_NODE":"92.0281"},{"CLASSIFICATION_TYPE":"U","LAUNCH_DATE":"2020-10-24","REV_AT_EPOCH":"12321","INCLINATION":"53.0524","TIME_SYSTEM":"UTC","ECCENTRICITY":"0.00019440","MEAN_ELEMENT_THEORY":"SGP4","EPOCH":"2023-01-12T21:38:44.977344","OBJECT_ID":"2020-074BF","GP_ID":"222886134","MEAN_MOTION":"15.06374510","SEMIMAJOR_AXIS":"6925.427","PERIAPSIS":"545.945","CENTER_NAME":"EARTH","OBJECT_TYPE":"PAYLOAD","NORAD_CAT_ID":"46792","FILE":"3742227","OBJECT_NAME":"STARLINK-1934","COUNTRY_CODE":"US","ARG_OF_PERICENTER":"48.4866","TLE_LINE2":"2 46792  53.0524  82.2072 0001944  48.4866 311.6289 15.06374510123215","APOAPSIS":"548.638","PERIOD":"95.594","MEAN_ANOMALY":"311.6289","MEAN_MOTION_DDOT":"0.0000000000000","MEAN_MOTION_DOT":"0.00021691","REF_FRAME":"TEME","ELEMENT_SET_NO":"999","SITE":"AFETR","EPHEMERIS_TYPE":"0","RCS_SIZE":"LARGE","TLE_LINE1":"1 46792U 20074BF  23012.90190946  .00021691  00000-0  14716-2 0  9997","RA_OF_ASC_NODE":"82.2072","BSTAR":"0.00147160000000","DECAY_DATE":null},{"BSTAR":"0.00023401000000","DECAY_DATE":null,"RA_OF_ASC_NODE":"92.0746","TLE_LINE1":"1 46793U 20074BG  23012.93047336  .00003204  00000-0  23401-3 0  9997","EPHEMERIS_TYPE":"0","RCS_SIZE":"LARGE","ELEMENT_SET_NO":"999","SITE":"AFETR","MEAN_MOTION_DOT":"0.00003204","REF_FRAME":"TEME","APOAPSIS":"548.687","MEAN_ANOMALY":"303.0630","PERIOD":"95.593","MEAN_MOTION_DDOT":"0.0000000000000","TLE_LINE2":"2 46793  53.0519  92.0746 0002054  57.0556 303.0630 15.06383442123075","OBJECT_NAME":"STARLINK-1941","COUNTRY_CODE":"US","ARG_OF_PERICENTER":"57.0556","CENTER_NAME":"EARTH","OBJECT_TYPE":"PAYLOAD","FILE":"3742227","NORAD_CAT_ID":"46793","SEMIMAJOR_AXIS":"6925.399","MEAN_MOTION":"15.06383442","PERIAPSIS":"545.842","GP_ID":"222887384","MEAN_ELEMENT_THEORY":"SGP4","EPOCH":"2023-01-12T22:19:52.898304","OBJECT_ID":"2020-074BG","ECCENTRICITY":"0.00020540","TIME_SYSTEM":"UTC","CLASSIFICATION_TYPE":"U","INCLINATION":"53.0519","LAUNCH_DATE":"2020-10-24","REV_AT_EPOCH":"12307"},{"TLE_LINE1":"1 46794U 20074BH  23012.60610474  .00000844  00000-0  75572-4 0  9995","EPHEMERIS_TYPE":"0","RCS_SIZE":"LARGE","BSTAR":"0.00007557200000","DECAY_DATE":null,"RA_OF_ASC_NODE":"93.5230","APOAPSIS":"548.723","PERIOD":"95.593","MEAN_ANOMALY":"320.4844","MEAN_MOTION_DDOT":"0.0000000000000","TLE_LINE2":"2 46794  53.0529  93.5230 0002146  39.6301 320.4844 15.06392402123039","ELEMENT_SET_NO":"999","SITE":"AFETR","MEAN_MOTION_DOT":"0.00000844","REF_FRAME":"TEME","MEAN_MOTION":"15.06392402","SEMIMAJOR_AXIS":"6925.372","PERIAPSIS":"545.751","GP_ID":"222887632","OBJECT_NAME":"STARLINK-1942","COUNTRY_CODE":"US","ARG_OF_PERICENTER":"39.6301","CENTER_NAME":"EARTH","OBJECT_TYPE":"PAYLOAD","FILE":"3742227","NORAD_CAT_ID":"46794","CLASSIFICATION_TYPE":"U","INCLINATION":"53.0529","LAUNCH_DATE":"2020-10-24","REV_AT_EPOCH":"12303","EPOCH":"2023-01-12T14:32:47.449536","MEAN_ELEMENT_THEORY":"SGP4","OBJECT_ID":"2020-074BH","ECCENTRICITY":"0.00021460","TIME_SYSTEM":"UTC"},{"TLE_LINE2":"2 46796  53.0521  82.1580 0001717  70.8611 289.2564 15.06387917123215","PERIOD":"95.593","APOAPSIS":"548.440","MEAN_ANOMALY":"289.2564","MEAN_MOTION_DDOT":"0.0000000000000","MEAN_MOTION_DOT":"0.00002999","REF_FRAME":"TEME","ELEMENT_SET_NO":"999","SITE":"AFETR","EPHEMERIS_TYPE":"0","RCS_SIZE":"LARGE","TLE_LINE1":"1 46796U 20074BK  23012.91296345  .00002999  00000-0  22021-3 0  9991","RA_OF_ASC_NODE":"82.1580","BSTAR":"0.00022021000000","DECAY_DATE":null,"CLASSIFICATION_TYPE":"U","LAUNCH_DATE":"2020-10-24","INCLINATION":"53.0521","REV_AT_EPOCH":"12321","ECCENTRICITY":"0.00017170","TIME_SYSTEM":"UTC","EPOCH":"2023-01-12T21:54:40.042080","MEAN_ELEMENT_THEORY":"SGP4","OBJECT_ID":"2020-074BK","GP_ID":"222886384","MEAN_MOTION":"15.06387917","SEMIMAJOR_AXIS":"6925.386","PERIAPSIS":"546.062","CENTER_NAME":"EARTH","OBJECT_TYPE":"PAYLOAD","FILE":"3742227","NORAD_CAT_ID":"46796","OBJECT_NAME":"STARLINK-1944","COUNTRY_CODE":"US","ARG_OF_PERICENTER":"70.8611"},{"CLASSIFICATION_TYPE":"U","LAUNCH_DATE":"2020-10-24","REV_AT_EPOCH":"12261","INCLINATION":"53.0534","TIME_SYSTEM":"UTC","ECCENTRICITY":"0.00010100","EPOCH":"2023-01-12T22:40:25.536000","MEAN_ELEMENT_THEORY":"SGP4","OBJECT_ID":"2020-074BM","GP_ID":"222862897","MEAN_MOTION":"15.06387781","SEMIMAJOR_AXIS":"6925.386","PERIAPSIS":"546.552","OBJECT_TYPE":"PAYLOAD","NORAD_CAT_ID":"46798","FILE":"3742035","CENTER_NAME":"EARTH","COUNTRY_CODE":"US","ARG_OF_PERICENTER":"63.8138","OBJECT_NAME":"STARLINK-1948","TLE_LINE2":"2 46798  53.0534 107.0025 0001010  63.8138 296.2954 15.06387781122617","MEAN_MOTION_DDOT":"0.0000000000000","PERIOD":"95.593","APOAPSIS":"547.950","MEAN_ANOMALY":"296.2954","REF_FRAME":"TEME","MEAN_MOTION_DOT":"-0.00001964","SITE":"AFETR","ELEMENT_SET_NO":"999","EPHEMERIS_TYPE":"0","RCS_SIZE":"LARGE","TLE_LINE1":"1 46798U 20074BM  23012.94474000 -.00001964  00000-0 -11305-3 0  9998","RA_OF_ASC_NODE":"107.0025","DECAY_DATE":null,"BSTAR":"-0.00011305000000"},{"CLASSIFICATION_TYPE":"U","LAUNCH_DATE":"2020-11-25","INCLINATION":"53.0545","REV_AT_EPOCH":"11823","TIME_SYSTEM":"UTC","ECCENTRICITY":"0.00019200","MEAN_ELEMENT_THEORY":"SGP4","EPOCH":"2023-01-12T21:34:46.376832","OBJECT_ID":"2020-088A","GP_ID":"222888920","SEMIMAJOR_AXIS":"6925.382","MEAN_MOTION":"15.06389137","PERIAPSIS":"545.917","CENTER_NAME":"EARTH","OBJECT_TYPE":"PAYLOAD","NORAD_CAT_ID":"47122","FILE":"3742227","OBJECT_NAME":"STARLINK-1777","COUNTRY_CODE":"US","ARG_OF_PERICENTER":"61.1477","TLE_LINE2":"2 47122  53.0545  72.2022 0001920  61.1477 298.9704 15.06389137118230","PERIOD":"95.593","APOAPSIS":"548.577","MEAN_ANOMALY":"298.9704","MEAN_MOTION_DDOT":"0.0000000000000","MEAN_MOTION_DOT":"0.00000477","REF_FRAME":"TEME","ELEMENT_SET_NO":"999","SITE":"AFETR","EPHEMERIS_TYPE":"0","RCS_SIZE":"LARGE","TLE_LINE1":"1 47122U 20088A   23012.89914788  .00000477  00000-0  50928-4 0  9992","RA_OF_ASC_NODE":"72.2022","BSTAR":"0.00005092800000","DECAY_DATE":null}];
